     2.11           GLONASS NAV DATA                        RINEX VERSION / TYPE
Leica Infinity 4.0.0                    20230719 140741 UTC PGM / RUN BY / DATE 
    18                                                      LEAP SECONDS        
                                                            END OF HEADER       
 6 23  7 17 13 45  0.0 -.119843520224E-03 -.181898940355E-11  .597300000000E+05
     .808300537109E+04 -.261095428467E+01  .186264514923E-08  .000000000000E+00
     .773901806641E+04  .174394512177E+01 -.186264514923E-08 -.400000000000E+01
     .229120888672E+05  .330262184143E+00 -.931322574616E-09  .000000000000E+00
 7 23  7 17 13 45  0.0  .603785738349E-04  .909494701773E-12  .597300000000E+05
     .200866254883E+05 -.182611942291E+01  .465661287308E-08  .000000000000E+00
    -.422622460938E+04  .992872238159E+00 -.279396772385E-08  .500000000000E+01
     .152149599609E+05  .268896579742E+01  .931322574616E-09  .000000000000E+00
 8 23  7 17 13 45  0.0 -.716745853424E-04  .000000000000E+00  .597300000000E+05
     .215512519531E+05 -.777578353882E-01  .372529029846E-08  .000000000000E+00
    -.136749799805E+05 -.162567138672E+00 -.931322574616E-09  .600000000000E+01
    -.956748046875E+02  .357456779480E+01  .279396772385E-08  .000000000000E+00
21 23  7 17 13 45  0.0 -.233780592680E-04 -.272848410532E-11  .597300000000E+05
     .228248554688E+05  .102687358856E+01  .186264514923E-08  .000000000000E+00
     .839576123047E+04  .305117607117E+00 -.279396772385E-08  .400000000000E+01
     .763458349609E+04 -.340558338165E+01  .186264514923E-08  .000000000000E+00
22 23  7 17 13 45  0.0  .966703519225E-04  .727595761418E-11  .597300000000E+05
     .156073491211E+05  .241563796997E+01  .372529029846E-08  .000000000000E+00
    -.184114550781E+04  .131556701660E+01 -.279396772385E-08 -.300000000000E+01
     .201166245117E+05 -.175477600098E+01  .000000000000E+00  .000000000000E+00
23 23  7 17 13 45  0.0 -.896835699678E-04 -.909494701773E-12  .597300000000E+05
    -.189069238281E+04  .263382053375E+01  .372529029846E-08  .000000000000E+00
    -.123914291992E+05  .153681278229E+01  .000000000000E+00  .300000000000E+01
     .222026669922E+05  .108094882965E+01 -.931322574616E-09  .000000000000E+00
 6 23  7 17 14 15  0.0 -.119847245514E-03 -.181898940355E-11  .612000000000E+05
     .362666552734E+04 -.230087661743E+01  .931322574616E-09  .000000000000E+00
     .112070961914E+05  .207632446289E+01 -.186264514923E-08 -.400000000000E+01
     .226122597656E+05 -.661290168762E+00 -.186264514923E-08  .000000000000E+00
 8 23  7 17 14 15  0.0 -.716736540198E-04  .000000000000E+00  .612000000000E+05
     .207683784180E+05 -.762336730957E+00  .372529029846E-08  .000000000000E+00
    -.134782543945E+05  .409934043884E+00 -.279396772385E-08  .600000000000E+01
     .625931982422E+04  .344083786011E+01  .279396772385E-08  .000000000000E+00
 7 23  7 17 14 15  0.0  .603813678026E-04  .909494701773E-12  .612000000000E+05
     .165137319336E+05 -.209629726410E+01  .372529029846E-08  .000000000000E+00
    -.187431542969E+04  .161907863617E+01 -.372529029846E-08  .500000000000E+01
     .194076513672E+05  .193951034546E+01  .000000000000E+00  .000000000000E+00
22 23  7 17 14 15  0.0  .966833904386E-04  .727595761418E-11  .612000000000E+05
     .197070278320E+05  .209151363373E+01  .279396772385E-08  .000000000000E+00
     .103417968750E+02  .745491027832E+00 -.372529029846E-08 -.300000000000E+01
     .162228408203E+05 -.254366779327E+01  .931322574616E-09  .000000000000E+00
21 23  7 17 14 15  0.0 -.233836472035E-04 -.272848410532E-11  .612000000000E+05
     .239965654297E+05  .248306274414E+00  .931322574616E-09  .000000000000E+00
     .850221044922E+04 -.153265953064E+00 -.279396772385E-08  .400000000000E+01
     .128810498047E+04 -.360016536713E+01  .186264514923E-08  .000000000000E+00
23 23  7 17 14 15  0.0 -.896863639355E-04 -.909494701773E-12  .612000000000E+05
     .319531250000E+04  .297253513336E+01  .372529029846E-08  .000000000000E+00
    -.993001904297E+04  .116937065125E+01 -.186264514923E-08  .300000000000E+01
     .232638608398E+05  .904741287231E-01  .000000000000E+00  .000000000000E+00
 6 23  7 17 14 45  0.0 -.119850039482E-03 -.181898940355E-11  .630000000000E+05
    -.816616210938E+02 -.179429340363E+01  .000000000000E+00  .000000000000E+00
     .150726459961E+05  .217470836639E+01 -.931322574616E-09 -.400000000000E+01
     .205620781250E+05 -.160191631317E+01 -.186264514923E-08  .000000000000E+00
 8 23  7 17 14 45  0.0 -.716736540198E-04  .000000000000E+00  .630000000000E+05
     .189367651367E+05 -.123165512085E+01  .372529029846E-08  .000000000000E+00
    -.121226860352E+05  .110913848877E+01 -.372529029846E-08  .600000000000E+01
     .121320678711E+05  .304232978821E+01  .186264514923E-08  .000000000000E+00
 7 23  7 17 14 45  0.0  .603841617703E-04  .909494701773E-12  .630000000000E+05
     .127108046875E+05 -.208326816559E+01  .186264514923E-08  .000000000000E+00
     .156419335938E+04  .218171310425E+01 -.372529029846E-08  .500000000000E+01
     .221074536133E+05  .104086112976E+01  .000000000000E+00  .000000000000E+00
22 23  7 17 14 45  0.0  .966954976320E-04  .727595761418E-11  .630000000000E+05
     .229755190430E+05  .150003814697E+01  .186264514923E-08  .000000000000E+00
     .888442871094E+03  .251211166382E+00 -.372529029846E-08 -.300000000000E+01
     .110773066406E+05 -.313658523560E+01  .931322574616E-09  .000000000000E+00
21 23  7 17 14 45  0.0 -.233892351389E-04 -.272848410532E-11  .630000000000E+05
     .236549096680E+05 -.636030197144E+00  .000000000000E+00  .000000000000E+00
     .798221386719E+04 -.382746696472E+00 -.186264514923E-08  .400000000000E+01
    -.515819091797E+04 -.351578140259E+01  .186264514923E-08  .000000000000E+00
23 23  7 17 14 45  0.0 -.896882265806E-04 -.909494701773E-12  .630000000000E+05
     .863338916016E+04  .301768589020E+01  .372529029846E-08  .000000000000E+00
    -.825506445313E+04  .680279731751E+00 -.279396772385E-08  .300000000000E+01
     .225241196289E+05 -.907071113586E+00  .000000000000E+00  .000000000000E+00
16 23  7 17 14 45  0.0  .167563557625E-04  .909494701773E-12  .635100000000E+05
    -.224111376953E+04 -.614141464233E+00 -.931322574616E-09  .000000000000E+00
     .188927973633E+05 -.224762916565E+01 -.931322574616E-09 -.100000000000E+01
     .170271606445E+05  .241167068481E+01 -.279396772385E-08  .000000000000E+00
24 23  7 17 14 45  0.0 -.169062986970E-04 -.181898940355E-11  .646200000000E+05
    -.986363623047E+04  .267254447937E+01  .279396772385E-08  .000000000000E+00
    -.120572050781E+05  .716551780701E+00  .000000000000E+00  .200000000000E+01
     .202164599609E+05  .173010635376E+01 -.931322574616E-09  .000000000000E+00
16 23  7 17 15 15  0.0  .167582184076E-04  .909494701773E-12  .648000000000E+05
    -.382814355469E+04 -.115482521057E+01  .000000000000E+00  .000000000000E+00
     .145064257813E+05 -.257784080505E+01  .000000000000E+00 -.100000000000E+01
     .206558134766E+05  .159403133392E+01 -.279396772385E-08  .000000000000E+00
 6 23  7 17 15 15  0.0 -.119853764772E-03 -.181898940355E-11  .648000000000E+05
    -.277367675781E+04 -.118959522247E+01 -.931322574616E-09  .000000000000E+00
     .188677944336E+05  .199418926239E+01  .000000000000E+00 -.400000000000E+01
     .169198632813E+05 -.241869258881E+01 -.279396772385E-08  .000000000000E+00
 8 23  7 17 15 15  0.0 -.716727226973E-04  .000000000000E+00  .648000000000E+05
     .164929589844E+05 -.143826198578E+01  .279396772385E-08  .000000000000E+00
    -.947214941406E+04  .183008766174E+01 -.465661287308E-08  .600000000000E+01
     .170712485352E+05  .241031360626E+01  .931322574616E-09  .000000000000E+00
 7 23  7 17 15 15  0.0  .603860244155E-04  .909494701773E-12  .648000000000E+05
     .916575634766E+04 -.181860065460E+01  .931322574616E-09  .000000000000E+00
     .587849902344E+04  .257622337341E+01 -.279396772385E-08  .500000000000E+01
     .231063471680E+05  .617485046387E-01 -.931322574616E-09  .000000000000E+00
22 23  7 17 15 15  0.0  .967076048255E-04  .727595761418E-11  .648000000000E+05
     .249866694336E+05  .708828926086E+00  .000000000000E+00  .000000000000E+00
     .101574755859E+04 -.757522583008E-01 -.372529029846E-08 -.300000000000E+01
     .507664111328E+04 -.348761558533E+01  .186264514923E-08  .000000000000E+00
23 23  7 17 15 15  0.0 -.896910205483E-04 -.909494701773E-12  .648000000000E+05
     .138696469727E+05  .274891376495E+01  .279396772385E-08  .000000000000E+00
    -.748807568359E+04  .179406166077E+00 -.372529029846E-08  .300000000000E+01
     .200406459961E+05 -.183439922333E+01  .931322574616E-09  .000000000000E+00
24 23  7 17 15 15  0.0 -.169081613421E-04 -.181898940355E-11  .648000000000E+05
    -.466281494141E+04  .306066131592E+01  .279396772385E-08  .000000000000E+00
    -.110818491211E+05  .344685554504E+00 -.186264514923E-08  .200000000000E+01
     .225102666016E+05  .802017211914E+00  .000000000000E+00  .000000000000E+00
